GLOBALSTAR M001 [-]     
1 25162U 98008A   23329.05640340 -.00000047  00000+0  38371-3 0  9998
2 25162  52.0013 192.5786 0002605 107.5266  39.8871 12.38173598173089
GLOBALSTAR M004 [-]     
1 25163U 98008B   23329.37762552 -.00000031  00000+0  40427-3 0  9992
2 25163  52.0012 352.4363 0003317 104.8251 358.0155 12.63342796189660
GLOBALSTAR M002 [-]     
1 25164U 98008C   23329.11826080 -.00000063  00000+0  25716-3 0  9991
2 25164  52.0004 229.5414 0001272 130.9757 229.1173 11.61497511117822
GLOBALSTAR M003 [-]     
1 25165U 98008D   23329.36660126  .00000054  00000+0  15293-2 0  9993
2 25165  51.9786 306.7887 0007583 225.6203 284.6095 12.11955793164120
GLOBALSTAR M014 [-]     
1 25306U 98023A   23329.39765413 -.00000034  00000+0  82208-3 0  9995
2 25306  51.9802 164.0416 0001851  67.1901  28.4748 11.65462442124739
GLOBALSTAR M006 [-]     
1 25307U 98023B   23329.58436775 -.00000037  00000+0  79534-3 0  9994
2 25307  51.9911 194.7551 0003849 145.5047 226.9099 11.58157146150830
GLOBALSTAR M015 [-]     
1 25308U 98023C   23329.26963979 -.00000068  00000+0  12807-3 0  9995
2 25308  51.9823 267.8956 0012319 137.8765  10.3063 11.48858344128576
GLOBALSTAR M008 [-]     
1 25309U 98023D   23329.55259206 -.00000069  00000+0  20989-3 0  9990
2 25309  51.9989  49.5133 0002793  66.7247  37.9233 12.36032239167406
